CCSDS_OEM_VERS = 1.0
CREATION_DATE  = 2017-05-11T11:18:05
ORIGINATOR     = GMAT USER

META_START
OBJECT_NAME          = MOPSSat_alt_35785_km_RAAN_90_103
OBJECT_ID            = SatId
CENTER_NAME          = Earth
REF_FRAME            = EME2000
TIME_SYSTEM          = UTC
START_TIME           = 2017-01-01T00:00:00.000
USEABLE_START_TIME   = 2017-01-01T00:00:00.000
USEABLE_STOP_TIME    = 2017-01-02T00:00:00.000
STOP_TIME            = 2017-01-02T00:00:00.000
INTERPOLATION        = Lagrange
INTERPOLATION_DEGREE = 7 
META_STOP


                                                                                   

2017-01-01T12:22:30.000   4.069818193963408e+03  -4.617461401286486e+04  -3.561827206841947e+02   2.758893928604568e+00   2.725136497315938e-01  -2.414284067118622e-01
2017-01-01T12:22:40.000   4.097406317134840e+03  -4.617187963747895e+04  -3.585969334980262e+02   2.758730576771424e+00   2.743614201886424e-01  -2.414141447748623e-01
2017-01-01T12:22:50.000   4.124992801531144e+03  -4.616912678474482e+04  -3.610110032325079e+02   2.758566118000577e+00   2.762091137839848e-01  -2.413997859782860e-01
2017-01-01T12:23:00.000   4.152577636082942e+03  -4.616635545543328e+04  -3.634249289190440e+02   2.758400552298542e+00   2.780567299957504e-01  -2.413853303226770e-01
2017-01-01T12:23:10.000   4.180160809706441e+03  -4.616356565032138e+04  -3.658387095877765e+02   2.758233879671937e+00   2.799042683010572e-01  -2.413707778085882e-01
2017-01-01T12:23:20.000   4.207742311038435e+03  -4.616075737022151e+04  -3.682523442443964e+02   2.758066100129239e+00   2.817517281582572e-01  -2.413561284367342e-01
2017-01-01T12:23:30.000   4.235322128793326e+03  -4.615793061594307e+04  -3.706658319013858e+02   2.757897213678474e+00   2.835991090308551e-01  -2.413413822077911e-01
2017-01-01T12:23:40.000   4.262900251619787e+03  -4.615508538830758e+04  -3.730791715654744e+02   2.757727220328135e+00   2.854464103779039e-01  -2.413265391224748e-01
2017-01-01T12:23:50.000   4.290476668733522e+03  -4.615222168808333e+04  -3.754923622930122e+02   2.757556120083273e+00   2.872936316963915e-01  -2.413115991812013e-01
2017-01-01T12:24:00.000   4.318051369282883e+03  -4.614933951605084e+04  -3.779054031344548e+02   2.757383912949400e+00   2.891407724787458e-01  -2.412965623844266e-01
2017-01-01T12:24:10.000   4.345624342512646e+03  -4.614643887298592e+04  -3.803182931486963e+02   2.757210598931493e+00   2.909878322238050e-01  -2.412814287325601e-01
2017-01-01T12:24:20.000   4.373195577323556e+03  -4.614351975970419e+04  -3.827310313645231e+02   2.757036178036635e+00   2.928348104073155e-01  -2.412661982261950e-01
2017-01-01T12:24:30.000   4.400765062635819e+03  -4.614058217702467e+04  -3.851436168124266e+02   2.756860650271859e+00   2.946817065062782e-01  -2.412508708659201e-01
2017-01-01T12:24:40.000   4.428332787307982e+03  -4.613762612577790e+04  -3.875560485175000e+02   2.756684015644618e+00   2.965285199935139e-01  -2.412354466523610e-01
2017-01-01T12:24:50.000   4.455898740159082e+03  -4.613465160680496e+04  -3.899683255013799e+02   2.756506274162734e+00   2.983752503391449e-01  -2.412199255861753e-01
2017-01-01T12:25:00.000   4.483462909995998e+03  -4.613165862095339e+04  -3.923804467846387e+02   2.756327425834150e+00   3.002218970124297e-01  -2.412043076680315e-01
2017-01-01T12:25:10.000   4.511025285623418e+03  -4.612864716907622e+04  -3.947924113876565e+02   2.756147470666879e+00   3.020684594824290e-01  -2.411885928986038e-01
2017-01-01T12:25:20.000   4.538585855942451e+03  -4.612561725202188e+04  -3.972042183392510e+02   2.755966408668393e+00   3.039149372246114e-01  -2.411727812785193e-01
2017-01-01T12:25:30.000   4.566144609884853e+03  -4.612256887064056e+04  -3.996158666709209e+02   2.755784239846007e+00   3.057613297164479e-01  -2.411568728083918e-01
2017-01-01T12:25:40.000   4.593701536413038e+03  -4.611950202578434e+04  -4.020273554168485e+02   2.755600964206893e+00   3.076076364374121e-01  -2.411408674888219e-01
2017-01-01T12:25:50.000   4.621256624585702e+03  -4.611641671829936e+04  -4.044386836196413e+02   2.755416581757593e+00   3.094538568733782e-01  -2.411247653203559e-01
2017-01-01T12:26:00.000   4.648809863459340e+03  -4.611331294903706e+04  -4.068498503217129e+02   2.755231092504715e+00   3.112999905100208e-01  -2.411085663035450e-01
2017-01-01T12:26:10.000   4.676361242078321e+03  -4.611019071885562e+04  -4.092608545644165e+02   2.755044496455000e+00   3.131460368321495e-01  -2.410922704389530e-01
2017-01-01T12:26:20.000   4.703910749447320e+03  -4.610705002862184e+04  -4.116716953856316e+02   2.754856793615448e+00   3.149919953218643e-01  -2.410758777271652e-01
2017-01-01T12:26:30.000   4.731458374509463e+03  -4.610389087921507e+04  -4.140823718178498e+02   2.754667983993540e+00   3.168378654570872e-01  -2.410593881688100e-01
2017-01-01T12:26:40.000   4.759004106227258e+03  -4.610071327151732e+04  -4.164928828952603e+02   2.754478067596658e+00   3.186836467169868e-01  -2.410428017645066e-01
2017-01-01T12:26:50.000   4.786547933219845e+03  -4.609751720645702e+04  -4.189032276220036e+02   2.754287044434696e+00   3.205293385576668e-01  -2.410261185150933e-01
2017-01-01T12:27:00.000   4.814089844202646e+03  -4.609430268495642e+04  -4.213134050106444e+02   2.754094914516914e+00   3.223749404416288e-01  -2.410093384213536e-01
2017-01-01T12:27:10.000   4.841629827823836e+03  -4.609106970795088e+04  -4.237234140678644e+02   2.753901677853096e+00   3.242204518268145e-01  -2.409924614841165e-01
2017-01-01T12:27:20.000   4.869167873297873e+03  -4.608781827631484e+04  -4.261332538498983e+02   2.753707334449124e+00   3.260658722090581e-01  -2.409754877038702e-01
2017-01-01T12:27:30.000   4.896703969773555e+03  -4.608454839093556e+04  -4.285429234072355e+02   2.753511884311380e+00   3.279112010797389e-01  -2.409584170811466e-01
2017-01-01T12:27:40.000   4.924238106477256e+03  -4.608126005269671e+04  -4.309524217971536e+02   2.753315327445770e+00   3.297564379353797e-01  -2.409412496164360e-01
2017-01-01T12:27:50.000   4.951770272356045e+03  -4.607795326251841e+04  -4.333617480524885e+02   2.753117663860122e+00   3.316015822537342e-01  -2.409239853103964e-01
2017-01-01T12:28:00.000   4.979300456342727e+03  -4.607462802132830e+04  -4.357709012048267e+02   2.752918893562443e+00   3.334466335115431e-01  -2.409066241637018e-01
2017-01-01T12:28:10.000   5.006828647355718e+03  -4.607128433006046e+04  -4.381798802844960e+02   2.752719016560869e+00   3.352915911845283e-01  -2.408891661770370e-01
2017-01-01T12:28:20.000   5.034354834034628e+03  -4.606792218968998e+04  -4.405886842974261e+02   2.752518032865725e+00   3.371364547296654e-01  -2.408716113512785e-01
2017-01-01T12:28:30.000   5.061879005096534e+03  -4.606454160118743e+04  -4.429973122563243e+02   2.752315942486801e+00   3.389812236090657e-01  -2.408539596872556e-01
2017-01-01T12:28:40.000   5.089401149195596e+03  -4.606114256553647e+04  -4.454057631683924e+02   2.752112745434410e+00   3.408258972805669e-01  -2.408362111858435e-01
2017-01-01T12:28:50.000   5.116921255544138e+03  -4.605772508365716e+04  -4.478140360896770e+02   2.751908441714803e+00   3.426704752393600e-01  -2.408183658475626e-01
2017-01-01T12:29:00.000   5.144439313291556e+03  -4.605428915648257e+04  -4.502221300707175e+02   2.751703031334740e+00   3.445149569763605e-01  -2.408004236729780e-01
2017-01-01T12:29:10.000   5.171955311664769e+03  -4.605083478494171e+04  -4.526300441688365e+02   2.751496514300485e+00   3.463593419876219e-01  -2.407823846626107e-01
2017-01-01T12:29:20.000   5.199469239611572e+03  -4.604736197000176e+04  -4.550377774169306e+02   2.751288890620318e+00   3.482036297504341e-01  -2.407642488171584e-01
2017-01-01T12:29:30.000   5.226981086065508e+03  -4.604387071263741e+04  -4.574453288466493e+02   2.751080160302704e+00   3.500478197410725e-01  -2.407460161373352e-01
2017-01-01T12:29:40.000   5.254490839945752e+03  -4.604036101382999e+04  -4.598526974883840e+02   2.750870323356247e+00   3.518919114347913e-01  -2.407276866238665e-01
2017-01-01T12:29:50.000   5.281998489892863e+03  -4.603683287460347e+04  -4.622598823481447e+02   2.750659379791840e+00   3.537359042881051e-01  -2.407092602776782e-01
2017-01-01T12:30:00.000   5.309504024624827e+03  -4.603328629597685e+04  -4.646668824387160e+02   2.750447329619811e+00   3.555797977626594e-01  -2.406907370996471e-01
2017-01-01T12:30:10.000   5.337007432796752e+03  -4.602972127898256e+04  -4.670736967673809e+02   2.750234172851035e+00   3.574235913158252e-01  -2.406721170906970e-01
2017-01-01T12:30:20.000   5.364508703621551e+03  -4.602613782458624e+04  -4.694803243902339e+02   2.750019909492128e+00   3.592672844423074e-01  -2.406534002513802e-01
2017-01-01T12:30:30.000   5.392007826249234e+03  -4.602253593376667e+04  -4.718867643578669e+02   2.749804539550237e+00   3.611108766325337e-01  -2.406345865822953e-01
2017-01-01T12:30:40.000   5.419504789907308e+03  -4.601891560749830e+04  -4.742930157276506e+02   2.749588063031981e+00   3.629543673820652e-01  -2.406156760839948e-01
2017-01-01T12:30:50.000   5.446999583544334e+03  -4.601527684679536e+04  -4.766990775325465e+02   2.749370479946099e+00   3.647977561677065e-01  -2.405966687572161e-01
2017-01-01T12:31:00.000   5.474492196094633e+03  -4.601161965267972e+04  -4.791049488042699e+02   2.749151790301527e+00   3.666410424652445e-01  -2.405775646027141e-01
2017-01-01T12:31:10.000   5.501982616478177e+03  -4.600794402617992e+04  -4.815106285732793e+02   2.748931994107336e+00   3.684842257494433e-01  -2.405583636212554e-01
2017-01-01T12:31:20.000   5.529470833336532e+03  -4.600424996836888e+04  -4.839161158456703e+02   2.748711091374993e+00   3.703273054763344e-01  -2.405390658138159e-01
2017-01-01T12:31:30.000   5.556956835388637e+03  -4.600053748031408e+04  -4.863214096343092e+02   2.748489082115374e+00   3.721702811070753e-01  -2.405196711813199e-01
